[Satellite]
VERSION=1.1
NAME=SPACEBEE-4
NICKNAME=SPACEBEE-4
TLE1=1 43139U 18004AE  19316.92128554  .00003042  00000-0  12273-3 0  9996
TLE2=2 43139  97.4775  25.4495 0010399  98.5658 261.6758 15.25541926101976
STATUS=0
